NORAD_CAT_ID,OBJECT_NAME,OBJECT_TYPE,EPOCH,MEAN_MOTION,ECCENTRICITY,INCLINATION,RA_OF_ASC_NODE,ARG_OF_PERICENTER,MEAN_ANOMALY,BSTAR,MEAN_MOTION_DOT,MEAN_MOTION_DDOT,TLE_LINE0,TLE_LINE1,TLE_LINE2,SEMIMAJOR_AXIS,PERIOD,APOGEE,PERIGEE,DECAYED
55673.0,STARLINK-5463,PAYLOAD,2023-06-07 02:59:17,15.69922134,0.0003437,69.9968,202.4671,269.094,90.9861,-4.4584e-06,-7.49e-06,0.0,0 STARLINK-5463,1 55673U 23021AX  23158.12450715 -.00000749  00000-0 -44584-5 0  9990,2 55673  69.9968 202.4671 0003437 269.0940  90.9861 15.69922134 17704,6737.257,91.724,361.437,356.806,0.0
55673.0,STARLINK-5463,PAYLOAD,2023-06-07 06:02:47,15.69923742,0.0003315,69.9974,202.1089,266.967,93.1146,-2.6223e-06,-5.28e-06,0.0,0 STARLINK-5463,1 55673U 23021AX  23158.25193935 -.00000528  00000-0 -26223-5 0  9997,2 55673  69.9974 202.1089 0003315 266.9670  93.1146 15.69923742 18036,6737.252,91.724,361.351,356.884,0.0
55673.0,STARLINK-5463,PAYLOAD,2023-06-07 19:48:33,15.69917189,0.0003374,69.9971,200.4965,271.6544,88.4266,6.7333e-06,5.97e-06,0.0,0 STARLINK-5463,1 55673U 23021AX  23158.82539191  .00000597  00000-0  67333-5 0  9999,2 55673  69.9971 200.4965 0003374 271.6544  88.4266 15.69917189 18123,6737.271,91.725,361.409,356.863,0.0
55673.0,STARLINK-5463,PAYLOAD,2023-06-08 06:30:49,15.69916564,0.000359,69.9975,199.2411,277.0372,83.0416,1.6794e-06,-1.1e-07,0.0,0 STARLINK-5463,1 55673U 23021AX  23159.27141199 -.00000011  00000-0  16794-5 0  9993,2 55673  69.9975 199.2411 0003590 277.0372  83.0416 15.69916564 17883,6737.273,91.725,361.556,356.719,0.0
55673.0,STARLINK-5463,PAYLOAD,2023-06-08 12:37:49,15.69931826,0.0003595,69.9965,198.5259,275.6938,84.3847,5.0011e-06,3.89e-06,0.0,0 STARLINK-5463,1 55673U 23021AX  23159.52626757  .00000389  00000-0  50011-5 0  9996,2 55673  69.9965 198.5259 0003595 275.6938  84.3847 15.69931826 18231,6737.229,91.724,361.516,356.672,0.0
55673.0,STARLINK-5463,PAYLOAD,2023-06-09 02:23:36,15.69920693,0.0003181,69.9984,196.9145,271.4436,88.6395,4.9303e-06,3.8e-06,0.0,0 STARLINK-5463,1 55673U 23021AX  23160.09972514  .00000380  00000-0  49303-5 0  9998,2 55673  69.9984 196.9145 0003181 271.4436  88.6395 15.69920693 18017,6737.261,91.724,361.269,356.983,0.0
55673.0,STARLINK-5463,PAYLOAD,2023-06-09 10:02:22,15.69918509,0.0003402,69.9975,196.0175,268.9214,91.1592,3.7259e-06,2.35e-06,0.0,0 STARLINK-5463,1 55673U 23021AX  23160.41831091  .00000235  00000-0  37259-5 0  9994,2 55673  69.9975 196.0175 0003402 268.9214  91.1592 15.69918509 18372,6737.267,91.725,361.424,356.84,0.0
55673.0,STARLINK-5463,PAYLOAD,2023-06-09 11:34:07,15.69920403,0.0003266,69.9972,195.8384,264.3178,95.7645,-1.0237e-06,-3.36e-06,0.0,0 STARLINK-5463,1 55673U 23021AX  23160.48202699 -.00000336  00000-0 -10237-5 0  9998,2 55673  69.9972 195.8384 0003266 264.3178  95.7645 15.69920403 18381,6737.262,91.724,361.327,356.926,0.0
55673.0,STARLINK-5463,PAYLOAD,2023-06-10 08:58:38,15.6992157,0.0003618,69.9974,193.3312,272.867,87.2112,9.7211e-06,9.56e-06,0.0,0 STARLINK-5463,1 55673U 23021AX  23161.37405940  .00000956  00000-0  97211-5 0  9994,2 55673  69.9974 193.3312 0003618 272.8670  87.2112 15.69921570 18212,6737.258,91.724,361.561,356.686,0.0
55673.0,STARLINK-5463,PAYLOAD,2023-06-10 10:30:23,15.69922235,0.0003491,69.9983,193.1525,274.094,85.9857,9.0703e-06,8.78e-06,0.0,0 STARLINK-5463,1 55673U 23021AX  23161.43777622  .00000878  00000-0  90703-5 0  9992,2 55673  69.9983 193.1525 0003491 274.0940  85.9857 15.69922235 18534,6737.256,91.724,361.473,356.77,0.0
55673.0,STARLINK-5463,PAYLOAD,2023-06-10 19:40:54,15.6992658,0.0003482,69.9972,192.0775,260.5797,99.5005,2.9575e-06,1.43e-06,0.0,0 STARLINK-5463,1 55673U 23021AX  23161.82007349  .00000143  00000-0  29575-5 0  9991,2 55673  69.9972 192.0775 0003482 260.5797  99.5005 15.69926580 18596,6737.244,91.724,361.455,356.763,0.0
55673.0,STARLINK-5463,PAYLOAD,2023-06-11 04:51:25,15.69921018,0.0003351,69.9972,191.0027,265.6803,94.401,1.0067e-05,9.98e-06,0.0,0 STARLINK-5463,1 55673U 23021AX  23162.20237664  .00000998  00000-0  10067-4 0  9992,2 55673  69.9972 191.0027 0003351 265.6803  94.4010 15.69921018 18652,6737.26,91.724,361.383,356.867,0.0
55673.0,STARLINK-5463,PAYLOAD,2023-06-11 10:58:25,15.69922287,0.0003415,69.9973,190.2863,266.5988,93.4818,6.7994e-06,6.05e-06,0.0,0 STARLINK-5463,1 55673U 23021AX  23162.45724385  .00000605  00000-0  67994-5 0  9997,2 55673  69.9973 190.2863 0003415 266.5988  93.4818 15.69922287 18695,6737.256,91.724,361.422,356.821,0.0
55673.0,STARLINK-5463,PAYLOAD,2023-06-12 08:22:57,15.69915076,0.0003393,69.9974,187.7782,265.6385,94.4423,1.5968e-05,1.707e-05,0.0,0 STARLINK-5463,1 55673U 23021AX  23163.34928028  .00001707  00000-0  15968-4 0  9993,2 55673  69.9974 187.7782 0003393 265.6385  94.4423 15.69915076 18830,6737.277,91.725,361.428,356.856,0.0
55673.0,STARLINK-5463,PAYLOAD,2023-06-12 19:05:13,15.69921097,0.0003449,69.9973,186.5245,264.2716,95.8087,1.1281e-06,-7.7e-07,0.0,0 STARLINK-5463,1 55673U 23021AX  23163.79529763 -.00000077  00000-0  11281-5 0  9990,2 55673  69.9973 186.5245 0003449 264.2716  95.8087 15.69921097 18599,6737.26,91.724,361.448,356.801,0.0
55673.0,STARLINK-5463,PAYLOAD,2023-06-13 01:12:14,15.69921294,0.0003528,69.9979,185.8071,262.1924,97.8871,3.2671e-06,1.8e-06,0.0,0 STARLINK-5463,1 55673U 23021AX  23164.05016374  .00000180  00000-0  32671-5 0  9999,2 55673  69.9979 185.8071 0003528 262.1924  97.8871 15.69921294 18941,6737.259,91.724,361.501,356.747,0.0
55673.0,STARLINK-5463,PAYLOAD,2023-06-13 04:15:44,15.69922694,0.0003512,69.9979,185.4491,263.0324,97.0472,5.2292e-06,4.16e-06,0.0,0 STARLINK-5463,1 55673U 23021AX  23164.17759599  .00000416  00000-0  52292-5 0  9998,2 55673  69.9979 185.4491 0003512 263.0324  97.0472 15.69922694 18966,6737.255,91.724,361.486,356.754,0.0
55673.0,STARLINK-5463,PAYLOAD,2023-06-14 01:40:16,15.69919465,0.0002555,69.9994,182.942,251.4718,108.62,1.3058e-05,1.358e-05,0.0,0 STARLINK-5463,1 55673U 23021AX  23165.06962980  .00001358  00000-0  13058-4 0  9999,2 55673  69.9994 182.9420 0002555 251.4718 108.6200 15.69919465 18792,6737.264,91.724,360.851,357.408,0.0
55673.0,STARLINK-5463,PAYLOAD,2023-06-14 18:29:32,15.69916706,0.0003159,69.9981,180.9715,266.9688,93.1146,5.3312e-06,4.28e-06,0.0,0 STARLINK-5463,1 55673U 23021AX  23165.77051920  .00000428  00000-0  53312-5 0  9995,2 55673  69.9981 180.9715 0003159 266.9688  93.1146 15.69916706 18906,6737.272,91.725,361.266,357.009,0.0
55673.0,STARLINK-5463,PAYLOAD,2023-06-15 09:47:03,15.69926395,0.0003041,69.9982,179.1805,257.1939,102.8917,5.5688e-06,4.57e-06,0.0,0 STARLINK-5463,1 55673U 23021AX  23166.40767909  .00000457  00000-0  55688-5 0  9997,2 55673  69.9982 179.1805 0003041 257.1939 102.8917 15.69926395 19009,6737.245,91.724,361.158,357.061,0.0
55673.0,STARLINK-5463,PAYLOAD,2023-06-16 01:04:34,15.69961233,0.0002647,69.9977,177.3881,246.1149,113.977,-4.7051e-05,-5.874e-05,0.0,0 STARLINK-5463,1 55673U 23021AX  23167.04483977 -.00005874  00000-0 -47051-4 0  9992,2 55673  69.9977 177.3881 0002647 246.1149 113.9770 15.69961233 19100,6737.145,91.722,360.793,357.227,0.0
55673.0,STARLINK-5463,PAYLOAD,2023-06-16 10:15:06,15.69911535,0.0002958,69.998,176.3139,267.3121,92.7736,-6.4383e-06,-9.86e-06,0.0,0 STARLINK-5463,1 55673U 23021AX  23167.42715684 -.00000986  00000-0 -64383-5 0  9994,2 55673  69.9980 176.3139 0002958 267.3121  92.7736 15.69911535 19161,6737.287,91.725,361.145,357.159,0.0
55673.0,STARLINK-5463,PAYLOAD,2023-06-16 17:53:51,15.69915157,0.0003442,69.9972,175.4188,267.5655,92.5147,-6.7064e-06,-1.019e-05,0.0,0 STARLINK-5463,1 55673U 23021AX  23167.74573842 -.00001019  00000-0 -67064-5 0  9994,2 55673  69.9972 175.4188 0003442 267.5655  92.5147 15.69915157 19527,6737.277,91.725,361.461,356.823,0.0
55673.0,STARLINK-5463,PAYLOAD,2023-06-17 03:04:22,15.69910346,0.000339,69.9984,174.344,265.7646,94.3163,-5.0038e-06,-8.14e-06,0.0,0 STARLINK-5463,1 55673U 23021AX  23168.12804312 -.00000814  00000-0 -50038-5 0  9991,2 55673  69.9984 174.3440 0003390 265.7646  94.3163 15.69910346 19580,6737.29,91.725,361.439,356.872,0.0
55673.0,STARLINK-5463,PAYLOAD,2023-06-18 06:35:53,15.69929578,0.0003057,69.9993,171.1212,258.7022,101.383,7.6225e-06,7.04e-06,0.0,0 STARLINK-5463,1 55673U 23021AX  23169.27492996  .00000704  00000-0  76225-5 0  9991,2 55673  69.9993 171.1212 0003057 258.7022 101.3830 15.69929578 19455,6737.235,91.724,361.16,357.041,0.0
55673.0,STARLINK-5463,PAYLOAD,2023-06-18 09:39:24,15.69930979,0.0003513,69.9974,170.7603,263.0604,97.0192,8.6907e-06,8.32e-06,0.0,0 STARLINK-5463,1 55673U 23021AX  23169.40236174  .00000832  00000-0  86907-5 0  9990,2 55673  69.9974 170.7603 0003513 263.0604  97.0192 15.69930979 19780,6737.231,91.724,361.463,356.73,0.0
55673.0,STARLINK-5463,PAYLOAD,2023-06-18 17:18:10,15.69925314,0.0003428,69.9967,169.8648,264.8751,95.2053,-2.3718e-06,-4.98e-06,0.0,0 STARLINK-5463,1 55673U 23021AX  23169.72095082 -.00000498  00000-0 -23718-5 0  9997,2 55673  69.9967 169.8648 0003428 264.8751  95.2053 15.69925314 19522,6737.248,91.724,361.422,356.803,0.0
55673.0,STARLINK-5463,PAYLOAD,2023-06-19 10:07:26,15.69922837,0.0003707,69.997,167.8939,265.4433,94.6339,1.3005e-05,1.351e-05,0.0,0 STARLINK-5463,1 55673U 23021AX  23170.42183483  .00001351  00000-0  13005-4 0  9993,2 55673  69.9970 167.8939 0003707 265.4433  94.6339 15.69922837 19944,6737.255,91.724,361.617,356.622,0.0
55673.0,STARLINK-5463,PAYLOAD,2023-06-20 09:03:43,15.69927211,0.0003377,69.9974,165.2071,263.3879,96.6933,-2.2845e-06,-4.88e-06,0.0,0 STARLINK-5463,1 55673U 23021AX  23171.37758595 -.00000488  00000-0 -22845-5 0  9995,2 55673  69.9974 165.2071 0003377 263.3879  96.6933 15.69927211 19786,6737.242,91.724,361.382,356.832,0.0
55673.0,STARLINK-5463,PAYLOAD,2023-06-21 01:53:00,15.69918328,0.000336,69.9981,163.2368,263.3485,96.7328,1.9681e-06,2.4e-07,0.0,0 STARLINK-5463,1 55673U 23021AX  23172.07847474  .00000024  00000-0  19681-5 0  9996,2 55673  69.9981 163.2368 0003360 263.3485  96.7328 15.69918328 19896,6737.268,91.725,361.396,356.869,0.0
